{
  "type": "FeatureCollection",
  "features": [
    {
      "type": "Feature",
      "properties": {
        "norad_id": 66661,
        "name": "SNUGLITE-III",
        "group": "last-30-days",
        "lat": -0.43162052411458723,
        "lon": -88.88250074237415,
        "alt_km": 587.6718330667773,
        "timestamp": "2025-12-09T18:55:16.023767+00:00",
        "meta_object_name": "SNUGLITE-III",
        "meta_object_id": "2025-274M",
        "meta_epoch": "2025-12-09T12:29:21.816096",
        "meta_mean_motion": 14.9307221,
        "meta_eccentricity": 0.00135441,
        "meta_inclination": 97.7389,
        "meta_ra_of_asc_node": 270.7952,
        "meta_arg_of_pericenter": 294.1543,
        "meta_mean_anomaly": 65.826,
        "meta_ephemeris_type": 0,
        "meta_classification_type": "U",
        "meta_norad_cat_id": 66661,
        "meta_element_set_no": 999,
        "meta_rev_at_epoch": 192,
        "meta_bstar": 0.00033345689,
        "meta_mean_motion_dot": 3.422e-05,
        "meta_mean_motion_ddot": 0,
        "tle_line1": "1 66661U 25274M   25343.52039139  .00003422  00000+0  33346-3 0  9996",
        "tle_line2": "2 66661  97.7389 270.7952 0013544 294.1543  65.8260 14.93072210  1925"
      },
      "geometry": {
        "type": "Point",
        "coordinates": [
          -88.88250074237415,
          -0.43162052411458723
        ]
      }
    },
    {
      "type": "Feature",
      "properties": {
        "norad_id": 66662,
        "name": "2025-274N",
        "group": "last-30-days",
        "lat": 2.375787397424466,
        "lon": -89.26336673385518,
        "alt_km": 587.5691358531749,
        "timestamp": "2025-12-09T18:55:16.023777+00:00",
        "meta_object_name": "2025-274N",
        "meta_object_id": "2025-274N",
        "meta_epoch": "2025-12-09T07:39:06.696864",
        "meta_mean_motion": 14.93119374,
        "meta_eccentricity": 0.0013906,
        "meta_inclination": 97.7389,
        "meta_ra_of_asc_node": 270.598,
        "meta_arg_of_pericenter": 294.3348,
        "meta_mean_anomaly": 65.6419,
        "meta_ephemeris_type": 0,
        "meta_classification_type": "U",
        "meta_norad_cat_id": 66662,
        "meta_element_set_no": 999,
        "meta_rev_at_epoch": 189,
        "meta_bstar": 0.00030732,
        "meta_mean_motion_dot": 3.153e-05,
        "meta_mean_motion_ddot": 0,
        "tle_line1": "1 66662U 25274N   25343.31882751  .00003153  00000+0  30732-3 0  9997",
        "tle_line2": "2 66662  97.7389 270.5980 0013906 294.3348  65.6419 14.93119374  1895"
      },
      "geometry": {
        "type": "Point",
        "coordinates": [
          -89.26336673385518,
          2.375787397424466
        ]
      }
    },
    {
      "type": "Feature",
      "properties": {
        "norad_id": 66663,
        "name": "KSLV-II R/B",
        "group": "last-30-days",
        "lat": -20.470218020653785,
        "lon": 88.24689113890511,
        "alt_km": 602.6866214957327,
        "timestamp": "2025-12-09T18:55:16.023789+00:00",
        "meta_object_name": "KSLV-II R/B",
        "meta_object_id": "2025-274P",
        "meta_epoch": "2025-12-09T08:24:04.565376",
        "meta_mean_motion": 14.97241242,
        "meta_eccentricity": 0.00501615,
        "meta_inclination": 97.7404,
        "meta_ra_of_asc_node": 270.7232,
        "meta_arg_of_pericenter": 331.3188,
        "meta_mean_anomaly": 28.5276,
        "meta_ephemeris_type": 0,
        "meta_classification_type": "U",
        "meta_norad_cat_id": 66663,
        "meta_element_set_no": 999,
        "meta_rev_at_epoch": 190,
        "meta_bstar": 0.00033078132,
        "meta_mean_motion_dot": 3.867e-05,
        "meta_mean_motion_ddot": 0,
        "tle_line1": "1 66663U 25274P   25343.35005284  .00003867  00000+0  33078-3 0  9998",
        "tle_line2": "2 66663  97.7404 270.7232 0050161 331.3188  28.5276 14.97241242  1909"
      },
      "geometry": {
        "type": "Point",
        "coordinates": [
          88.24689113890511,
          -20.470218020653785
        ]
      }
    },
    {
      "type": "Feature",
      "properties": {
        "norad_id": 66664,
        "name": "SOYUZ-MS 28",
        "group": "last-30-days",
        "lat": 45.377927944425736,
        "lon": -76.3052806020989,
        "alt_km": 412.8925168935011,
        "timestamp": "2025-12-09T18:55:16.023800+00:00",
        "meta_object_name": "SOYUZ-MS 28",
        "meta_object_id": "2025-275A",
        "meta_epoch": "2025-12-09T12:14:10.839552",
        "meta_mean_motion": 15.49447168,
        "meta_eccentricity": 0.00034,
        "meta_inclination": 51.631,
        "meta_ra_of_asc_node": 158.4724,
        "meta_arg_of_pericenter": 223.8185,
        "meta_mean_anomaly": 136.2534,
        "meta_ephemeris_type": 0,
        "meta_classification_type": "U",
        "meta_norad_cat_id": 66664,
        "meta_element_set_no": 999,
        "meta_rev_at_epoch": 128,
        "meta_bstar": 0.00026025969,
        "meta_mean_motion_dot": 0.00014141,
        "meta_mean_motion_ddot": 0,
        "tle_line1": "1 66664U 25275A   25343.50984768  .00014141  00000+0  26026-3 0  9992",
        "tle_line2": "2 66664  51.6310 158.4724 0003400 223.8185 136.2534 15.49447168  1287"
      },
      "geometry": {
        "type": "Point",
        "coordinates": [
          -76.3052806020989,
          45.377927944425736
        ]
      }
    },
    {
      "type": "Feature",
      "properties": {
        "norad_id": 66820,
        "name": "KOMPSAT-7",
        "group": "last-30-days",
        "lat": -82.26928283394943,
        "lon": 11.146066758349077,
        "alt_km": 574.2261456239121,
        "timestamp": "2025-12-09T18:55:16.023810+00:00",
        "meta_object_name": "KOMPSAT-7",
        "meta_object_id": "2025-279A",
        "meta_epoch": "2025-12-09T14:30:32.266368",
        "meta_mean_motion": 14.98378319,
        "meta_eccentricity": 0.00094634,
        "meta_inclination": 97.6403,
        "meta_ra_of_asc_node": 289.534,
        "meta_arg_of_pericenter": 231.7406,
        "meta_mean_anomaly": 128.2966,
        "meta_ephemeris_type": 0,
        "meta_classification_type": "U",
        "meta_norad_cat_id": 66820,
        "meta_element_set_no": 999,
        "meta_rev_at_epoch": 118,
        "meta_bstar": 0.00038973743,
        "meta_mean_motion_dot": 4.593e-05,
        "meta_mean_motion_ddot": 0,
        "tle_line1": "1 66820U 25279A   25343.60454012  .00004593  00000+0  38974-3 0  9990",
        "tle_line2": "2 66820  97.6403 289.5340 0009463 231.7406 128.2966 14.98378319  1186"
      },
      "geometry": {
        "type": "Point",
        "coordinates": [
          11.146066758349077,
          -82.26928283394943
        ]
      }
    },
    {
      "type": "Feature",
      "properties": {
        "norad_id": 66877,
        "name": "ZQ-3 R/B",
        "group": "last-30-days",
        "lat": -16.09979859283673,
        "lon": 58.07829931033418,
        "alt_km": 1030.313033398451,
        "timestamp": "2025-12-09T18:55:16.023823+00:00",
        "meta_object_name": "ZQ-3 R/B",
        "meta_object_id": "2025-282A",
        "meta_epoch": "2025-12-09T14:03:36.956160",
        "meta_mean_motion": 14.50884243,
        "meta_eccentricity": 0.08147892,
        "meta_inclination": 56.9538,
        "meta_ra_of_asc_node": 69.6744,
        "meta_arg_of_pericenter": 214.5064,
        "meta_mean_anomaly": 140.0407,
        "meta_ephemeris_type": 0,
        "meta_classification_type": "U",
        "meta_norad_cat_id": 66877,
        "meta_element_set_no": 999,
        "meta_rev_at_epoch": 93,
        "meta_bstar": 0.00027721727,
        "meta_mean_motion_dot": 0.01312735,
        "meta_mean_motion_ddot": 7.332797e-06,
        "tle_line1": "1 66877U 25282A   25343.58584440  .01312735  73328-5  27722-3 0  9991",
        "tle_line2": "2 66877  56.9538  69.6744 0814789 214.5064 140.0407 14.50884243   934"
      },
      "geometry": {
        "type": "Point",
        "coordinates": [
          58.07829931033418,
          -16.09979859283673
        ]
      }
    },
    {
      "type": "Feature",
      "properties": {
        "norad_id": 66906,
        "name": "1998-067XS",
        "group": "last-30-days",
        "lat": 34.178346445837704,
        "lon": -55.49614168825858,
        "alt_km": 409.7321316833377,
        "timestamp": "2025-12-09T18:55:16.023833+00:00",
        "meta_object_name": "1998-067XS",
        "meta_object_id": "1998-067XS",
        "meta_epoch": "2025-12-09T12:09:24.113376",
        "meta_mean_motion": 15.50312686,
        "meta_eccentricity": 0.00039811,
        "meta_inclination": 51.63,
        "meta_ra_of_asc_node": 158.4502,
        "meta_arg_of_pericenter": 188.2752,
        "meta_mean_anomaly": 171.8172,
        "meta_ephemeris_type": 0,
        "meta_classification_type": "U",
        "meta_norad_cat_id": 66906,
        "meta_element_set_no": 999,
        "meta_rev_at_epoch": 111,
        "meta_bstar": 0.00059211588,
        "meta_mean_motion_dot": 0.00033864,
        "meta_mean_motion_ddot": 0,
        "tle_line1": "1 66906U 98067XS  25343.50652909  .00033864  00000+0  59212-3 0  9995",
        "tle_line2": "2 66906  51.6300 158.4502 0003981 188.2752 171.8172 15.50312686  1110"
      },
      "geometry": {
        "type": "Point",
        "coordinates": [
          -55.49614168825858,
          34.178346445837704
        ]
      }
    }
  ]
}